{
  "type": "FeatureCollection",
  "features": [
    {
      "type": "Feature",
      "properties": {
        "norad_id": 39617,
        "name": "ASTRA 5B (EGNOS/PRN 123)",
        "group": "gnss",
        "lat": 0.03462370645760878,
        "lon": 54.634468864485974,
        "alt_km": 35802.2631896934,
        "timestamp": "2025-12-11T20:41:15.323988+00:00",
        "meta_object_name": "ASTRA 5B (EGNOS/PRN 123)",
        "meta_object_id": "2014-011B",
        "meta_epoch": "2025-12-11T13:37:21.923904",
        "meta_mean_motion": 1.00271779,
        "meta_eccentricity": 0.00044238,
        "meta_inclination": 0.059,
        "meta_ra_of_asc_node": 35.9987,
        "meta_arg_of_pericenter": 228.6389,
        "meta_mean_anomaly": 43.7134,
        "meta_ephemeris_type": 0,
        "meta_classification_type": "U",
        "meta_norad_cat_id": 39617,
        "meta_element_set_no": 999,
        "meta_rev_at_epoch": 4278,
        "meta_bstar": 0,
        "meta_mean_motion_dot": 1.44e-06,
        "meta_mean_motion_ddot": 0,
        "tle_line1": "1 39617U 14011B   25345.56761486  .00000144  00000+0  00000+0 0  9992",
        "tle_line2": "2 39617   0.0590  35.9987 0004423 228.6389  43.7134  1.00271779 42781"
      },
      "geometry": {
        "type": "Point",
        "coordinates": [
          54.634468864485974,
          0.03462370645760878
        ]
      }
    },
    {
      "type": "Feature",
      "properties": {
        "norad_id": 39620,
        "name": "COSMOS 2492 (754)",
        "group": "gnss",
        "lat": 5.0303992408692935,
        "lon": 137.98105311995874,
        "alt_km": 19156.17594655411,
        "timestamp": "2025-12-11T20:41:15.323999+00:00",
        "meta_object_name": "COSMOS 2492 (754)",
        "meta_object_id": "2014-012A",
        "meta_epoch": "2025-12-11T15:13:27.039936",
        "meta_mean_motion": 2.13102949,
        "meta_eccentricity": 0.00142133,
        "meta_inclination": 65.4084,
        "meta_ra_of_asc_node": 320.3085,
        "meta_arg_of_pericenter": 311.3676,
        "meta_mean_anomaly": 48.5095,
        "meta_ephemeris_type": 0,
        "meta_classification_type": "U",
        "meta_norad_cat_id": 39620,
        "meta_element_set_no": 999,
        "meta_rev_at_epoch": 9124,
        "meta_bstar": 0,
        "meta_mean_motion_dot": -5.3e-07,
        "meta_mean_motion_ddot": 0,
        "tle_line1": "1 39620U 14012A   25345.63434074 -.00000053  00000+0  00000+0 0  9995",
        "tle_line2": "2 39620  65.4084 320.3085 0014213 311.3676  48.5095  2.13102949 91246"
      },
      "geometry": {
        "type": "Point",
        "coordinates": [
          137.98105311995874,
          5.0303992408692935
        ]
      }
    },
    {
      "type": "Feature",
      "properties": {
        "norad_id": 39635,
        "name": "IRNSS-1B",
        "group": "gnss",
        "lat": -10.733403331825764,
        "lon": 83.77365301329642,
        "alt_km": 35715.46927706471,
        "timestamp": "2025-12-11T20:41:15.324011+00:00",
        "meta_object_name": "IRNSS-1B",
        "meta_object_id": "2014-017A",
        "meta_epoch": "2025-12-07T19:02:08.350080",
        "meta_mean_motion": 1.00276938,
        "meta_eccentricity": 0.00176548,
        "meta_inclination": 28.8332,
        "meta_ra_of_asc_node": 243.6763,
        "meta_arg_of_pericenter": 183.0277,
        "meta_mean_anomaly": 350.7455,
        "meta_ephemeris_type": 0,
        "meta_classification_type": "U",
        "meta_norad_cat_id": 39635,
        "meta_element_set_no": 999,
        "meta_rev_at_epoch": 4287,
        "meta_bstar": 0,
        "meta_mean_motion_dot": 1.18e-06,
        "meta_mean_motion_ddot": 0,
        "tle_line1": "1 39635U 14017A   25341.79315220  .00000118  00000+0  00000+0 0  9991",
        "tle_line2": "2 39635  28.8332 243.6763 0017654 183.0277 350.7455  1.00276938 42872"
      },
      "geometry": {
        "type": "Point",
        "coordinates": [
          83.77365301329642,
          -10.733403331825764
        ]
      }
    },
    {
      "type": "Feature",
      "properties": {
        "norad_id": 39727,
        "name": "LUCH 5V (SDCM/PRN 141)",
        "group": "gnss",
        "lat": 3.8014548104010553,
        "lon": 125.76444847064336,
        "alt_km": 35803.24419383532,
        "timestamp": "2025-12-11T20:41:15.324023+00:00",
        "meta_object_name": "LUCH 5V (SDCM/PRN 141)",
        "meta_object_id": "2014-023A",
        "meta_epoch": "2025-12-11T16:14:35.090592",
        "meta_mean_motion": 1.00269295,
        "meta_eccentricity": 0.0004626,
        "meta_inclination": 4.667,
        "meta_ra_of_asc_node": 71.5454,
        "meta_arg_of_pericenter": 204.3673,
        "meta_mean_anomaly": 143.1207,
        "meta_ephemeris_type": 0,
        "meta_classification_type": "U",
        "meta_norad_cat_id": 39727,
        "meta_element_set_no": 999,
        "meta_rev_at_epoch": 4247,
        "meta_bstar": 0,
        "meta_mean_motion_dot": -2.62e-06,
        "meta_mean_motion_ddot": 0,
        "tle_line1": "1 39727U 14023A   25345.67679503 -.00000262  00000+0  00000+0 0  9999",
        "tle_line2": "2 39727   4.6670  71.5454 0004626 204.3673 143.1207  1.00269295 42471"
      },
      "geometry": {
        "type": "Point",
        "coordinates": [
          125.76444847064336,
          3.8014548104010553
        ]
      }
    },
    {
      "type": "Feature",
      "properties": {
        "norad_id": 39741,
        "name": "GPS BIIF-6  (PRN 06)",
        "group": "gnss",
        "lat": -55.950616889748225,
        "lon": -123.5403789963761,
        "alt_km": 20129.00320120457,
        "timestamp": "2025-12-11T20:41:15.324049+00:00",
        "meta_object_name": "GPS BIIF-6  (PRN 06)",
        "meta_object_id": "2014-026A",
        "meta_epoch": "2025-12-10T23:57:15.294816",
        "meta_mean_motion": 2.00561447,
        "meta_eccentricity": 0.00391459,
        "meta_inclination": 56.5843,
        "meta_ra_of_asc_node": 338.8441,
        "meta_arg_of_pericenter": 318.5813,
        "meta_mean_anomaly": 41.134,
        "meta_ephemeris_type": 0,
        "meta_classification_type": "U",
        "meta_norad_cat_id": 39741,
        "meta_element_set_no": 999,
        "meta_rev_at_epoch": 8476,
        "meta_bstar": 0,
        "meta_mean_motion_dot": -8.5e-07,
        "meta_mean_motion_ddot": 0,
        "tle_line1": "1 39741U 14026A   25344.99809369 -.00000085  00000+0  00000+0 0  9990",
        "tle_line2": "2 39741  56.5843 338.8441 0039145 318.5813  41.1340  2.00561447 84766"
      },
      "geometry": {
        "type": "Point",
        "coordinates": [
          -123.5403789963761,
          -55.950616889748225
        ]
      }
    },
    {
      "type": "Feature",
      "properties": {
        "norad_id": 40001,
        "name": "COSMOS 2500 (755)",
        "group": "gnss",
        "lat": 37.84627860210684,
        "lon": -19.04421965551912,
        "alt_km": 19146.38046574444,
        "timestamp": "2025-12-11T20:41:15.324065+00:00",
        "meta_object_name": "COSMOS 2500 (755)",
        "meta_object_id": "2014-032A",
        "meta_epoch": "2025-12-09T11:02:48.490944",
        "meta_mean_motion": 2.13105796,
        "meta_eccentricity": 0.000831,
        "meta_inclination": 65.3451,
        "meta_ra_of_asc_node": 320.1442,
        "meta_arg_of_pericenter": 219.1348,
        "meta_mean_anomaly": 140.802,
        "meta_ephemeris_type": 0,
        "meta_classification_type": "U",
        "meta_norad_cat_id": 40001,
        "meta_element_set_no": 999,
        "meta_rev_at_epoch": 8941,
        "meta_bstar": 0,
        "meta_mean_motion_dot": -4.9e-07,
        "meta_mean_motion_ddot": 0,
        "tle_line1": "1 40001U 14032A   25343.46028346 -.00000049  00000+0  00000+0 0  9997",
        "tle_line2": "2 40001  65.3451 320.1442 0008310 219.1348 140.8020  2.13105796 89418"
      },
      "geometry": {
        "type": "Point",
        "coordinates": [
          -19.04421965551912,
          37.84627860210684
        ]
      }
    },
    {
      "type": "Feature",
      "properties": {
        "norad_id": 40105,
        "name": "GPS BIIF-7  (PRN 09)",
        "group": "gnss",
        "lat": -17.328861110574234,
        "lon": -71.56603359838019,
        "alt_km": 20170.53503529354,
        "timestamp": "2025-12-11T20:41:15.324076+00:00",
        "meta_object_name": "GPS BIIF-7  (PRN 09)",
        "meta_object_id": "2014-045A",
        "meta_epoch": "2025-12-10T14:05:32.873856",
        "meta_mean_motion": 2.00572371,
        "meta_eccentricity": 0.00327329,
        "meta_inclination": 55.2279,
        "meta_ra_of_asc_node": 95.9848,
        "meta_arg_of_pericenter": 119.8162,
        "meta_mean_anomaly": 240.4986,
        "meta_ephemeris_type": 0,
        "meta_classification_type": "U",
        "meta_norad_cat_id": 40105,
        "meta_element_set_no": 999,
        "meta_rev_at_epoch": 8229,
        "meta_bstar": 0,
        "meta_mean_motion_dot": 0,
        "meta_mean_motion_ddot": 0,
        "tle_line1": "1 40105U 14045A   25344.58718604  .00000000  00000+0  00000+0 0  9999",
        "tle_line2": "2 40105  55.2279  95.9848 0032732 119.8162 240.4986  2.00572371 82291"
      },
      "geometry": {
        "type": "Point",
        "coordinates": [
          -71.56603359838019,
          -17.328861110574234
        ]
      }
    }
  ]
}